GAOFEN-6                
1 43484U 18048A   25334.18139380  .00000986  00000+0  14804-3 0  9996
2 43484  97.8048  38.8690 0013001  98.7954 261.4729 14.76643085404027
GAOFEN-11 01            
1 43585U 18063A   25334.22096544  .00016827  00000+0  31551-3 0  9993
2 43585  97.1584  37.2638 0005301   5.1619 354.9686 15.48703178409481
ICESAT-2                
1 43613U 18070A   25334.09882954  .00015761  00000+0  57280-3 0  9999
2 43613  92.0046 237.3252 0000200 113.2043 246.9227 15.28232445402059
HYSIS                   
1 43719U 18096A   25332.83872980  .00000073  00000+0  17124-4 0  9996
2 43719  98.0115  35.8838 0001829  72.4024 287.7386 14.78582387377814
KAZSTSAT                
1 43783U 18099AB  25334.05445286  .00002384  00000+0  19987-3 0  9996
2 43783  97.4550   9.7848 0006699  14.6994 345.4423 14.99281621381466
SAUDISAT 5A             
1 43831U 18102A   25334.19706821  .00007949  00000+0  31676-3 0  9996
2 43831  97.3376  34.6313 0011697 114.8139 245.4317 15.25417960385313
SAUDISAT 5B             
1 43833U 18102C   25334.19047625  .00007531  00000+0  29700-3 0  9990
2 43833  97.3469  37.3408 0012366 117.5110 242.7386 15.25777179385425
GAOFEN-10R              
1 44622U 19066A   25334.17390219  .00001980  00000+0  25188-3 0  9993
2 44622  98.0258 281.6332 0008319  75.7922 284.4215 14.82721575332882
