{
  "type": "FeatureCollection",
  "features": [
    {
      "type": "Feature",
      "properties": {
        "OBJECT_NAME": "GAOFEN-6",
        "OBJECT_ID": "2018-048A",
        "EPOCH": "2025-11-30T04:21:12.424320",
        "MEAN_MOTION": 14.76643085,
        "ECCENTRICITY": 0.0013001,
        "INCLINATION": 97.8048,
        "RA_OF_ASC_NODE": 38.869,
        "ARG_OF_PERICENTER": 98.7954,
        "MEAN_ANOMALY": 261.4729,
        "EPHEMERIS_TYPE": 0,
        "CLASSIFICATION_TYPE": "U",
        "NORAD_CAT_ID": 43484,
        "ELEMENT_SET_NO": 999,
        "REV_AT_EPOCH": 40402,
        "BSTAR": 0.00014804,
        "MEAN_MOTION_DOT": 9.86e-06,
        "MEAN_MOTION_DDOT": 0,
        "norad_id": 43484,
        "name": "GAOFEN-6",
        "group": "resource",
        "longitude_deg": NaN,
        "latitude_deg": NaN,
        "alt_km": NaN,
        "orbit_class": "HEO",
        "timestamp": "2025-11-30T09:33:02.507940+00:00"
      },
      "geometry": {
        "type": "Point",
        "coordinates": [
          NaN,
          NaN
        ]
      }
    },
    {
      "type": "Feature",
      "properties": {
        "OBJECT_NAME": "GAOFEN-11 01",
        "OBJECT_ID": "2018-063A",
        "EPOCH": "2025-11-30T05:18:11.414016",
        "MEAN_MOTION": 15.48703178,
        "ECCENTRICITY": 0.0005301,
        "INCLINATION": 97.1584,
        "RA_OF_ASC_NODE": 37.2638,
        "ARG_OF_PERICENTER": 5.1619,
        "MEAN_ANOMALY": 354.9686,
        "EPHEMERIS_TYPE": 0,
        "CLASSIFICATION_TYPE": "U",
        "NORAD_CAT_ID": 43585,
        "ELEMENT_SET_NO": 999,
        "REV_AT_EPOCH": 40948,
        "BSTAR": 0.00031551,
        "MEAN_MOTION_DOT": 0.00016827,
        "MEAN_MOTION_DDOT": 0,
        "norad_id": 43585,
        "name": "GAOFEN-11 01",
        "group": "resource",
        "longitude_deg": NaN,
        "latitude_deg": NaN,
        "alt_km": NaN,
        "orbit_class": "HEO",
        "timestamp": "2025-11-30T09:33:02.508111+00:00"
      },
      "geometry": {
        "type": "Point",
        "coordinates": [
          NaN,
          NaN
        ]
      }
    },
    {
      "type": "Feature",
      "properties": {
        "OBJECT_NAME": "ICESAT-2",
        "OBJECT_ID": "2018-070A",
        "EPOCH": "2025-11-30T02:22:18.872256",
        "MEAN_MOTION": 15.28232445,
        "ECCENTRICITY": 2e-05,
        "INCLINATION": 92.0046,
        "RA_OF_ASC_NODE": 237.3252,
        "ARG_OF_PERICENTER": 113.2043,
        "MEAN_ANOMALY": 246.9227,
        "EPHEMERIS_TYPE": 0,
        "CLASSIFICATION_TYPE": "U",
        "NORAD_CAT_ID": 43613,
        "ELEMENT_SET_NO": 999,
        "REV_AT_EPOCH": 40205,
        "BSTAR": 0.0005728,
        "MEAN_MOTION_DOT": 0.00015761,
        "MEAN_MOTION_DDOT": 0,
        "norad_id": 43613,
        "name": "ICESAT-2",
        "group": "resource",
        "longitude_deg": NaN,
        "latitude_deg": NaN,
        "alt_km": NaN,
        "orbit_class": "HEO",
        "timestamp": "2025-11-30T09:33:02.508152+00:00"
      },
      "geometry": {
        "type": "Point",
        "coordinates": [
          NaN,
          NaN
        ]
      }
    },
    {
      "type": "Feature",
      "properties": {
        "OBJECT_NAME": "HYSIS",
        "OBJECT_ID": "2018-096A",
        "EPOCH": "2025-11-28T20:07:46.254720",
        "MEAN_MOTION": 14.78582387,
        "ECCENTRICITY": 0.00018296,
        "INCLINATION": 98.0115,
        "RA_OF_ASC_NODE": 35.8838,
        "ARG_OF_PERICENTER": 72.4024,
        "MEAN_ANOMALY": 287.7386,
        "EPHEMERIS_TYPE": 0,
        "CLASSIFICATION_TYPE": "U",
        "NORAD_CAT_ID": 43719,
        "ELEMENT_SET_NO": 999,
        "REV_AT_EPOCH": 37781,
        "BSTAR": 1.7124359e-05,
        "MEAN_MOTION_DOT": 7.3e-07,
        "MEAN_MOTION_DDOT": 0,
        "norad_id": 43719,
        "name": "HYSIS",
        "group": "resource",
        "longitude_deg": NaN,
        "latitude_deg": NaN,
        "alt_km": NaN,
        "orbit_class": "HEO",
        "timestamp": "2025-11-30T09:33:02.508379+00:00"
      },
      "geometry": {
        "type": "Point",
        "coordinates": [
          NaN,
          NaN
        ]
      }
    },
    {
      "type": "Feature",
      "properties": {
        "OBJECT_NAME": "KAZSTSAT",
        "OBJECT_ID": "2018-099AB",
        "EPOCH": "2025-11-30T01:18:24.727104",
        "MEAN_MOTION": 14.99281621,
        "ECCENTRICITY": 0.0006699,
        "INCLINATION": 97.455,
        "RA_OF_ASC_NODE": 9.7848,
        "ARG_OF_PERICENTER": 14.6994,
        "MEAN_ANOMALY": 345.4423,
        "EPHEMERIS_TYPE": 0,
        "CLASSIFICATION_TYPE": "U",
        "NORAD_CAT_ID": 43783,
        "ELEMENT_SET_NO": 999,
        "REV_AT_EPOCH": 38146,
        "BSTAR": 0.00019987,
        "MEAN_MOTION_DOT": 2.384e-05,
        "MEAN_MOTION_DDOT": 0,
        "norad_id": 43783,
        "name": "KAZSTSAT",
        "group": "resource",
        "longitude_deg": NaN,
        "latitude_deg": NaN,
        "alt_km": NaN,
        "orbit_class": "HEO",
        "timestamp": "2025-11-30T09:33:02.508501+00:00"
      },
      "geometry": {
        "type": "Point",
        "coordinates": [
          NaN,
          NaN
        ]
      }
    },
    {
      "type": "Feature",
      "properties": {
        "OBJECT_NAME": "SAUDISAT 5A",
        "OBJECT_ID": "2018-102A",
        "EPOCH": "2025-11-30T04:43:46.693344",
        "MEAN_MOTION": 15.2541796,
        "ECCENTRICITY": 0.0011697,
        "INCLINATION": 97.3376,
        "RA_OF_ASC_NODE": 34.6313,
        "ARG_OF_PERICENTER": 114.8139,
        "MEAN_ANOMALY": 245.4317,
        "EPHEMERIS_TYPE": 0,
        "CLASSIFICATION_TYPE": "U",
        "NORAD_CAT_ID": 43831,
        "ELEMENT_SET_NO": 999,
        "REV_AT_EPOCH": 38531,
        "BSTAR": 0.00031676,
        "MEAN_MOTION_DOT": 7.949e-05,
        "MEAN_MOTION_DDOT": 0,
        "norad_id": 43831,
        "name": "SAUDISAT 5A",
        "group": "resource",
        "longitude_deg": NaN,
        "latitude_deg": NaN,
        "alt_km": NaN,
        "orbit_class": "HEO",
        "timestamp": "2025-11-30T09:33:02.508683+00:00"
      },
      "geometry": {
        "type": "Point",
        "coordinates": [
          NaN,
          NaN
        ]
      }
    },
    {
      "type": "Feature",
      "properties": {
        "OBJECT_NAME": "SAUDISAT 5B",
        "OBJECT_ID": "2018-102C",
        "EPOCH": "2025-11-30T04:34:17.148000",
        "MEAN_MOTION": 15.25777179,
        "ECCENTRICITY": 0.0012366,
        "INCLINATION": 97.3469,
        "RA_OF_ASC_NODE": 37.3408,
        "ARG_OF_PERICENTER": 117.511,
        "MEAN_ANOMALY": 242.7386,
        "EPHEMERIS_TYPE": 0,
        "CLASSIFICATION_TYPE": "U",
        "NORAD_CAT_ID": 43833,
        "ELEMENT_SET_NO": 999,
        "REV_AT_EPOCH": 38542,
        "BSTAR": 0.000297,
        "MEAN_MOTION_DOT": 7.531e-05,
        "MEAN_MOTION_DDOT": 0,
        "norad_id": 43833,
        "name": "SAUDISAT 5B",
        "group": "resource",
        "longitude_deg": NaN,
        "latitude_deg": NaN,
        "alt_km": NaN,
        "orbit_class": "HEO",
        "timestamp": "2025-11-30T09:33:02.508689+00:00"
      },
      "geometry": {
        "type": "Point",
        "coordinates": [
          NaN,
          NaN
        ]
      }
    },
    {
      "type": "Feature",
      "properties": {
        "OBJECT_NAME": "GAOFEN-10R",
        "OBJECT_ID": "2019-066A",
        "EPOCH": "2025-11-30T04:10:25.149216",
        "MEAN_MOTION": 14.82721575,
        "ECCENTRICITY": 0.0008319,
        "INCLINATION": 98.0258,
        "RA_OF_ASC_NODE": 281.6332,
        "ARG_OF_PERICENTER": 75.7922,
        "MEAN_ANOMALY": 284.4215,
        "EPHEMERIS_TYPE": 0,
        "CLASSIFICATION_TYPE": "U",
        "NORAD_CAT_ID": 44622,
        "ELEMENT_SET_NO": 999,
        "REV_AT_EPOCH": 33288,
        "BSTAR": 0.00025188,
        "MEAN_MOTION_DOT": 1.98e-05,
        "MEAN_MOTION_DDOT": 0,
        "norad_id": 44622,
        "name": "GAOFEN-10R",
        "group": "resource",
        "longitude_deg": NaN,
        "latitude_deg": NaN,
        "alt_km": NaN,
        "orbit_class": "HEO",
        "timestamp": "2025-11-30T09:33:02.509418+00:00"
      },
      "geometry": {
        "type": "Point",
        "coordinates": [
          NaN,
          NaN
        ]
      }
    }
  ]
}